[{"OBJECT_NAME":"STARLINK-32496","OBJECT_ID":"2024-216V","EPOCH":"2026-03-09T21:52:27.642720","MEAN_MOTION":15.27597252,"ECCENTRICITY":0.00020727,"INCLINATION":43.0043,"RA_OF_ASC_NODE":262.4991,"ARG_OF_PERICENTER":275.0545,"MEAN_ANOMALY":85.007,"EPHEMERIS_TYPE":0,"CLASSIFICATION_TYPE":"U","NORAD_CAT_ID":62051,"ELEMENT_SET_NO":999,"REV_AT_EPOCH":7382,"BSTAR":0.0011169003,"MEAN_MOTION_DOT":0.00030617,"MEAN_MOTION_DDOT":0},{"OBJECT_NAME":"CZ-6A R\/B","OBJECT_ID":"2023-168B","EPOCH":"2026-03-09T21:13:08.722272","MEAN_MOTION":15.16100791,"ECCENTRICITY":0.00607667,"INCLINATION":97.7542,"RA_OF_ASC_NODE":104.7688,"ARG_OF_PERICENTER":339.2379,"MEAN_ANOMALY":20.6386,"EPHEMERIS_TYPE":0,"CLASSIFICATION_TYPE":"U","NORAD_CAT_ID":58200,"ELEMENT_SET_NO":999,"REV_AT_EPOCH":12979,"BSTAR":0.00029693841,"MEAN_MOTION_DOT":5.919e-5,"MEAN_MOTION_DDOT":0}]
